[{"OBJECT_NAME":"STARLINK-5692","OBJECT_ID":"2023-015AL","EPOCH":"2026-03-09T22:00:01.999584","MEAN_MOTION":15.14614631,"ECCENTRICITY":0.00018517,"INCLINATION":43.0005,"RA_OF_ASC_NODE":337.2774,"ARG_OF_PERICENTER":261.2422,"MEAN_ANOMALY":100.4471,"EPHEMERIS_TYPE":0,"CLASSIFICATION_TYPE":"U","NORAD_CAT_ID":55483,"ELEMENT_SET_NO":999,"REV_AT_EPOCH":577,"BSTAR":0.0025102028,"MEAN_MOTION_DOT":0.00047286,"MEAN_MOTION_DDOT":0},{"OBJECT_NAME":"PRSC-EO1","OBJECT_ID":"2025-012A","EPOCH":"2026-03-09T23:07:33.699072","MEAN_MOTION":15.17765596,"ECCENTRICITY":0.00053607,"INCLINATION":97.4297,"RA_OF_ASC_NODE":143.3271,"ARG_OF_PERICENTER":221.9324,"MEAN_ANOMALY":138.15,"EPHEMERIS_TYPE":0,"CLASSIFICATION_TYPE":"U","NORAD_CAT_ID":62725,"ELEMENT_SET_NO":999,"REV_AT_EPOCH":6314,"BSTAR":0.0005131815,"MEAN_MOTION_DOT":0.00010308,"MEAN_MOTION_DDOT":0}]
